IRIDIUM 159             
1 43578U 18061K   25005.68646059  .00000888  00000+0  31005-3 0  9994
2 43578  86.3966 277.1233 0002372  82.6226 277.5239 14.34201453337771
IRIDIUM 180             
1 43922U 19002A   25005.82549769  .00000049  00000+0  10498-4 0  9992
2 43922  86.3972 213.9472 0001880  85.9567 274.1843 14.34213823313447
IRIDIUM 176             
1 43923U 19002B   25006.06936992  .00002052  00000+0  32128-3 0  9997
2 43923  86.6095 213.8509 0002505  65.0312 295.1165 14.72281484321695
IRIDIUM 168             
1 43924U 19002C   25005.81915449  .00000345  00000+0  11599-3 0  9996
2 43924  86.3975 214.0122 0002091  84.3532 275.7902 14.34215940313384
IRIDIUM 173             
1 43925U 19002D   25005.80646977  .00000085  00000+0  23160-4 0  9992
2 43925  86.3967 213.9282 0001918  87.4156 272.7259 14.34216073313362
IRIDIUM 169             
1 43926U 19002E   25005.74128211  .00000509  00000+0  15985-3 0  9998
2 43926  86.4219 245.5638 0000333  71.5902 288.5332 14.38598011314393
IRIDIUM 172             
1 43927U 19002F   25006.28850043  .00000357  00000+0  12030-3 0  9993
2 43927  86.3967 213.7330 0002087  85.1036 275.0398 14.34220562313443
IRIDIUM 175             
1 43928U 19002G   25005.79217366  .00001295  00000+0  20128-3 0  9993
2 43928  86.1527 175.7211 0001812 135.9544 224.1817 14.72269079321642
